ONEWEB-0375             
1 49301U 21090Y   26061.13133782  .00000144  00000+0  32321-3 0  9994
2 49301  87.9187 295.8073 0001537  63.1999 296.9291 13.20771886216398
ONEWEB-0376             
1 49302U 21090Z   26061.13496794  .00000113  00000+0  24988-3 0  9996
2 49302  87.9248 326.2827 0001680  87.0839 273.0486 13.19726789212332
ONEWEB-0377             
1 49303U 21090AA  26061.11726907  .00000888  00000+0  21514-2 0  9997
2 49303  87.9181 295.8126 0001832  79.0632 281.0707 13.20778077216386
ONEWEB-0378             
1 49304U 21090AB  26061.13934860  .00000165  00000+0  37378-3 0  9993
2 49304  87.9177 295.8191 0001506  78.9902 281.1401 13.20772705215653
ONEWEB-0379             
1 49305U 21090AC  26061.16847939 -.00000047  00000+0 -16110-3 0  9999
2 49305  87.9003 311.0574 0001531  78.7367 281.3935 13.14502570213509
ONEWEB-0380             
1 49306U 21090AD  26061.13180929  .00000049  00000+0  89736-4 0  9991
2 49306  87.9242 326.2994 0001815  71.8659 288.2672 13.19726164212305
ONEWEB-0381             
1 49307U 21090AE  26061.11395978  .00000027  00000+0  33818-4 0  9998
2 49307  87.9184 295.8165 0001485  74.3989 285.7308 13.20773214215692
ONEWEB-0382             
1 49308U 21090AF  26061.10133712 -.00000001  00000+0 -34753-4 0  9997
2 49308  87.9185 295.8155 0001375  74.7769 285.3516 13.20772961215685
ONEWEB-0383             
1 49309U 21090AG  26061.16212885  .00000038  00000+0  68394-4 0  9999
2 49309  87.9004 311.0446 0001448  78.6054 281.5239 13.14501474213535
ONEWEB-0384             
1 49310U 21090AH  26061.16863622  .00000026  00000+0  31947-4 0  9993
2 49310  87.9190 295.8447 0001148  70.1931 289.9326 13.20806541215701
ONEWEB-0385             
1 49311U 21090AJ  26061.16921686  .00000040  00000+0  65428-4 0  9996
2 49311  87.9185 295.8065 0001488  76.9046 283.2253 13.20771519215678
ONEWEB-0386             
1 49312U 21090AK  26061.11080412 -.00000026  00000+0 -95506-4 0  9991
2 49312  87.9188 295.8027 0001387  79.2618 280.8672 13.20769439215686
ONEWEB-0387             
1 49313U 21090AL  26061.09502683  .00000052  00000+0  96679-4 0  9997
2 49313  87.9175 295.8442 0001712  72.7822 287.3498 13.20772810215686
ONEWEB-0388             
1 49314U 21090AM  26061.12706881  .00000096  00000+0  20769-3 0  9992
2 49314  87.9238 326.2974 0001607  76.3636 283.7676 13.19726923212296
ONEWEB-0389             
1 50469U 21132A   26061.12872785  .00000076  00000+0  16362-3 0  9991
2 50469  87.9137  27.1294 0001838  70.8445 289.2885 13.17648806203982
ONEWEB-0390             
1 50470U 21132B   26061.13039321  .00000087  00000+0  19183-3 0  9991
2 50470  87.9137  27.1293 0002150  82.2348 277.9028 13.17651606203985
ONEWEB-0391             
1 50471U 21132C   26060.98023429 -.00000014  00000+0 -68869-4 0  9994
2 50471  87.9135  27.1685 0002268  61.0426 299.0933 13.17648825203968
