[{"OBJECT_NAME":"ONEWEB-0375","OBJECT_ID":"2021-090Y","EPOCH":"2026-03-02T03:09:07.587648","MEAN_MOTION":13.20771886,"ECCENTRICITY":0.0001537,"INCLINATION":87.9187,"RA_OF_ASC_NODE":295.8073,"ARG_OF_PERICENTER":63.1999,"MEAN_ANOMALY":296.9291,"EPHEMERIS_TYPE":0,"CLASSIFICATION_TYPE":"U","NORAD_CAT_ID":49301,"ELEMENT_SET_NO":999,"REV_AT_EPOCH":21639,"BSTAR":0.00032321,"MEAN_MOTION_DOT":1.44e-6,"MEAN_MOTION_DDOT":0},{"OBJECT_NAME":"ONEWEB-0376","OBJECT_ID":"2021-090Z","EPOCH":"2026-03-02T03:14:21.230016","MEAN_MOTION":13.19726789,"ECCENTRICITY":0.000168,"INCLINATION":87.9248,"RA_OF_ASC_NODE":326.2827,"ARG_OF_PERICENTER":87.0839,"MEAN_ANOMALY":273.0486,"EPHEMERIS_TYPE":0,"CLASSIFICATION_TYPE":"U","NORAD_CAT_ID":49302,"ELEMENT_SET_NO":999,"REV_AT_EPOCH":21233,"BSTAR":0.00024988,"MEAN_MOTION_DOT":1.13e-6,"MEAN_MOTION_DDOT":0},{"OBJECT_NAME":"ONEWEB-0377","OBJECT_ID":"2021-090AA","EPOCH":"2026-03-02T02:48:52.047648","MEAN_MOTION":13.20778077,"ECCENTRICITY":0.0001832,"INCLINATION":87.9181,"RA_OF_ASC_NODE":295.8126,"ARG_OF_PERICENTER":79.0632,"MEAN_ANOMALY":281.0707,"EPHEMERIS_TYPE":0,"CLASSIFICATION_TYPE":"U","NORAD_CAT_ID":49303,"ELEMENT_SET_NO":999,"REV_AT_EPOCH":21638,"BSTAR":0.0021514,"MEAN_MOTION_DOT":8.88e-6,"MEAN_MOTION_DDOT":0},{"OBJECT_NAME":"ONEWEB-0378","OBJECT_ID":"2021-090AB","EPOCH":"2026-03-02T03:20:39.719040","MEAN_MOTION":13.20772705,"ECCENTRICITY":0.0001506,"INCLINATION":87.9177,"RA_OF_ASC_NODE":295.8191,"ARG_OF_PERICENTER":78.9902,"MEAN_ANOMALY":281.1401,"EPHEMERIS_TYPE":0,"CLASSIFICATION_TYPE":"U","NORAD_CAT_ID":49304,"ELEMENT_SET_NO":999,"REV_AT_EPOCH":21565,"BSTAR":0.00037378,"MEAN_MOTION_DOT":1.65e-6,"MEAN_MOTION_DDOT":0},{"OBJECT_NAME":"ONEWEB-0379","OBJECT_ID":"2021-090AC","EPOCH":"2026-03-02T04:02:36.619296","MEAN_MOTION":13.1450257,"ECCENTRICITY":0.0001531,"INCLINATION":87.9003,"RA_OF_ASC_NODE":311.0574,"ARG_OF_PERICENTER":78.7367,"MEAN_ANOMALY":281.3935,"EPHEMERIS_TYPE":0,"CLASSIFICATION_TYPE":"U","NORAD_CAT_ID":49305,"ELEMENT_SET_NO":999,"REV_AT_EPOCH":21350,"BSTAR":-0.0001611,"MEAN_MOTION_DOT":-4.7e-7,"MEAN_MOTION_DDOT":0},{"OBJECT_NAME":"ONEWEB-0380","OBJECT_ID":"2021-090AD","EPOCH":"2026-03-02T03:09:48.322656","MEAN_MOTION":13.19726164,"ECCENTRICITY":0.0001815,"INCLINATION":87.9242,"RA_OF_ASC_NODE":326.2994,"ARG_OF_PERICENTER":71.8659,"MEAN_ANOMALY":288.2672,"EPHEMERIS_TYPE":0,"CLASSIFICATION_TYPE":"U","NORAD_CAT_ID":49306,"ELEMENT_SET_NO":999,"REV_AT_EPOCH":21230,"BSTAR":8.9736e-5,"MEAN_MOTION_DOT":4.9e-7,"MEAN_MOTION_DDOT":0},{"OBJECT_NAME":"ONEWEB-0381","OBJECT_ID":"2021-090AE","EPOCH":"2026-03-02T02:44:06.124992","MEAN_MOTION":13.20773214,"ECCENTRICITY":0.0001485,"INCLINATION":87.9184,"RA_OF_ASC_NODE":295.8165,"ARG_OF_PERICENTER":74.3989,"MEAN_ANOMALY":285.7308,"EPHEMERIS_TYPE":0,"CLASSIFICATION_TYPE":"U","NORAD_CAT_ID":49307,"ELEMENT_SET_NO":999,"REV_AT_EPOCH":21569,"BSTAR":3.3818e-5,"MEAN_MOTION_DOT":2.7e-7,"MEAN_MOTION_DDOT":0},{"OBJECT_NAME":"ONEWEB-0382","OBJECT_ID":"2021-090AF","EPOCH":"2026-03-02T02:25:55.527168","MEAN_MOTION":13.20772961,"ECCENTRICITY":0.0001375,"INCLINATION":87.9185,"RA_OF_ASC_NODE":295.8155,"ARG_OF_PERICENTER":74.7769,"MEAN_ANOMALY":285.3516,"EPHEMERIS_TYPE":0,"CLASSIFICATION_TYPE":"U","NORAD_CAT_ID":49308,"ELEMENT_SET_NO":999,"REV_AT_EPOCH":21568,"BSTAR":-3.4753e-5,"MEAN_MOTION_DOT":-1.0e-8,"MEAN_MOTION_DDOT":0},{"OBJECT_NAME":"ONEWEB-0383","OBJECT_ID":"2021-090AG","EPOCH":"2026-03-02T03:53:27.932640","MEAN_MOTION":13.14501474,"ECCENTRICITY":0.0001448,"INCLINATION":87.9004,"RA_OF_ASC_NODE":311.0446,"ARG_OF_PERICENTER":78.6054,"MEAN_ANOMALY":281.5239,"EPHEMERIS_TYPE":0,"CLASSIFICATION_TYPE":"U","NORAD_CAT_ID":49309,"ELEMENT_SET_NO":999,"REV_AT_EPOCH":21353,"BSTAR":6.8394e-5,"MEAN_MOTION_DOT":3.8e-7,"MEAN_MOTION_DDOT":0},{"OBJECT_NAME":"ONEWEB-0384","OBJECT_ID":"2021-090AH","EPOCH":"2026-03-02T04:02:50.169408","MEAN_MOTION":13.20806541,"ECCENTRICITY":0.0001148,"INCLINATION":87.919,"RA_OF_ASC_NODE":295.8447,"ARG_OF_PERICENTER":70.1931,"MEAN_ANOMALY":289.9326,"EPHEMERIS_TYPE":0,"CLASSIFICATION_TYPE":"U","NORAD_CAT_ID":49310,"ELEMENT_SET_NO":999,"REV_AT_EPOCH":21570,"BSTAR":3.1947e-5,"MEAN_MOTION_DOT":2.6e-7,"MEAN_MOTION_DDOT":0},{"OBJECT_NAME":"ONEWEB-0385","OBJECT_ID":"2021-090AJ","EPOCH":"2026-03-02T04:03:40.336704","MEAN_MOTION":13.20771519,"ECCENTRICITY":0.0001488,"INCLINATION":87.9185,"RA_OF_ASC_NODE":295.8065,"ARG_OF_PERICENTER":76.9046,"MEAN_ANOMALY":283.2253,"EPHEMERIS_TYPE":0,"CLASSIFICATION_TYPE":"U","NORAD_CAT_ID":49311,"ELEMENT_SET_NO":999,"REV_AT_EPOCH":21567,"BSTAR":6.5428e-5,"MEAN_MOTION_DOT":4.0e-7,"MEAN_MOTION_DDOT":0},{"OBJECT_NAME":"ONEWEB-0386","OBJECT_ID":"2021-090AK","EPOCH":"2026-03-02T02:39:33.475968","MEAN_MOTION":13.20769439,"ECCENTRICITY":0.0001387,"INCLINATION":87.9188,"RA_OF_ASC_NODE":295.8027,"ARG_OF_PERICENTER":79.2618,"MEAN_ANOMALY":280.8672,"EPHEMERIS_TYPE":0,"CLASSIFICATION_TYPE":"U","NORAD_CAT_ID":49312,"ELEMENT_SET_NO":999,"REV_AT_EPOCH":21568,"BSTAR":-9.5506e-5,"MEAN_MOTION_DOT":-2.6e-7,"MEAN_MOTION_DDOT":0},{"OBJECT_NAME":"ONEWEB-0387","OBJECT_ID":"2021-090AL","EPOCH":"2026-03-02T02:16:50.318112","MEAN_MOTION":13.2077281,"ECCENTRICITY":0.0001712,"INCLINATION":87.9175,"RA_OF_ASC_NODE":295.8442,"ARG_OF_PERICENTER":72.7822,"MEAN_ANOMALY":287.3498,"EPHEMERIS_TYPE":0,"CLASSIFICATION_TYPE":"U","NORAD_CAT_ID":49313,"ELEMENT_SET_NO":999,"REV_AT_EPOCH":21568,"BSTAR":9.6679e-5,"MEAN_MOTION_DOT":5.2e-7,"MEAN_MOTION_DDOT":0},{"OBJECT_NAME":"ONEWEB-0388","OBJECT_ID":"2021-090AM","EPOCH":"2026-03-02T03:02:58.745184","MEAN_MOTION":13.19726923,"ECCENTRICITY":0.0001607,"INCLINATION":87.9238,"RA_OF_ASC_NODE":326.2974,"ARG_OF_PERICENTER":76.3636,"MEAN_ANOMALY":283.7676,"EPHEMERIS_TYPE":0,"CLASSIFICATION_TYPE":"U","NORAD_CAT_ID":49314,"ELEMENT_SET_NO":999,"REV_AT_EPOCH":21229,"BSTAR":0.00020769,"MEAN_MOTION_DOT":9.6e-7,"MEAN_MOTION_DDOT":0},{"OBJECT_NAME":"ONEWEB-0389","OBJECT_ID":"2021-132A","EPOCH":"2026-03-02T03:05:22.086240","MEAN_MOTION":13.17648806,"ECCENTRICITY":0.0001838,"INCLINATION":87.9137,"RA_OF_ASC_NODE":27.1294,"ARG_OF_PERICENTER":70.8445,"MEAN_ANOMALY":289.2885,"EPHEMERIS_TYPE":0,"CLASSIFICATION_TYPE":"U","NORAD_CAT_ID":50469,"ELEMENT_SET_NO":999,"REV_AT_EPOCH":20398,"BSTAR":0.00016362,"MEAN_MOTION_DOT":7.6e-7,"MEAN_MOTION_DDOT":0},{"OBJECT_NAME":"ONEWEB-0390","OBJECT_ID":"2021-132B","EPOCH":"2026-03-02T03:07:45.973344","MEAN_MOTION":13.17651606,"ECCENTRICITY":0.000215,"INCLINATION":87.9137,"RA_OF_ASC_NODE":27.1293,"ARG_OF_PERICENTER":82.2348,"MEAN_ANOMALY":277.9028,"EPHEMERIS_TYPE":0,"CLASSIFICATION_TYPE":"U","NORAD_CAT_ID":50470,"ELEMENT_SET_NO":999,"REV_AT_EPOCH":20398,"BSTAR":0.00019183,"MEAN_MOTION_DOT":8.7e-7,"MEAN_MOTION_DDOT":0},{"OBJECT_NAME":"ONEWEB-0391","OBJECT_ID":"2021-132C","EPOCH":"2026-03-01T23:31:32.242656","MEAN_MOTION":13.17648825,"ECCENTRICITY":0.0002268,"INCLINATION":87.9135,"RA_OF_ASC_NODE":27.1685,"ARG_OF_PERICENTER":61.0426,"MEAN_ANOMALY":299.0933,"EPHEMERIS_TYPE":0,"CLASSIFICATION_TYPE":"U","NORAD_CAT_ID":50471,"ELEMENT_SET_NO":999,"REV_AT_EPOCH":20396,"BSTAR":-6.8869e-5,"MEAN_MOTION_DOT":-1.4e-7,"MEAN_MOTION_DDOT":0}]
